[{"OBJECT_NAME":"STARLINK-32612","OBJECT_ID":"2024-210P","EPOCH":"2026-03-09T08:12:59.251680","MEAN_MOTION":15.27601895,"ECCENTRICITY":0.00030436,"INCLINATION":43.0011,"RA_OF_ASC_NODE":182.0561,"ARG_OF_PERICENTER":285.6662,"MEAN_ANOMALY":74.3854,"EPHEMERIS_TYPE":0,"CLASSIFICATION_TYPE":"U","NORAD_CAT_ID":61972,"ELEMENT_SET_NO":999,"REV_AT_EPOCH":7482,"BSTAR":0.0012230411,"MEAN_MOTION_DOT":0.00033572,"MEAN_MOTION_DDOT":0},{"OBJECT_NAME":"OTTER","OBJECT_ID":"2025-009Q","EPOCH":"2026-03-09T17:21:07.902432","MEAN_MOTION":15.27809545,"ECCENTRICITY":0.00035728,"INCLINATION":97.4065,"RA_OF_ASC_NODE":151.3812,"ARG_OF_PERICENTER":310.771,"MEAN_ANOMALY":49.3219,"EPHEMERIS_TYPE":0,"CLASSIFICATION_TYPE":"U","NORAD_CAT_ID":62623,"ELEMENT_SET_NO":999,"REV_AT_EPOCH":6372,"BSTAR":0.00045151206,"MEAN_MOTION_DOT":0.00012198,"MEAN_MOTION_DDOT":0}]
